NORAD_CAT_ID,OBJECT_NAME,OBJECT_TYPE,EPOCH,MEAN_MOTION,ECCENTRICITY,INCLINATION,RA_OF_ASC_NODE,ARG_OF_PERICENTER,MEAN_ANOMALY,BSTAR,MEAN_MOTION_DOT,MEAN_MOTION_DDOT,TLE_LINE0,TLE_LINE1,TLE_LINE2,SEMIMAJOR_AXIS,PERIOD,APOGEE,PERIGEE,DECAYED
50831.0,STARLINK-3299,PAYLOAD,2022-08-23 07:47:45,15.08840016,0.0002360999999999,53.2175,219.7436,49.9313,310.1886,9.6589e-05,1.249e-05,0.0,0 STARLINK-3299,1 50831U 22001AE  22235.32483509  .00001249  00000-0  96589-4 0  9997,2 50831  53.2175 219.7436 0002361  49.9313 310.1886 15.08840016 35003,6917.88,95.438,541.379,538.112,0.0
50831.0,STARLINK-3299,PAYLOAD,2022-08-24 06:03:10,15.08832981,0.0002372,53.2176,215.58,50.4809,309.6392,-2.2812e-05,-6.51e-06,0.0,0 STARLINK-3299,1 50831U 22001AE  22236.25220184 -.00000651  00000-0 -22812-4 0  9994,2 50831  53.2176 215.5800 0002372  50.4809 309.6392 15.08832981 36415,6917.901999999999,95.438,541.408,538.126,0.0
50831.0,STARLINK-3299,PAYLOAD,2022-08-24 07:38:33,15.08831829,0.0002329,53.2173,215.2827,50.2796,309.8402,-3.2326e-05,-8.03e-06,0.0,0 STARLINK-3299,1 50831U 22001AE  22236.31844294 -.00000803  00000-0 -32326-4 0  9995,2 50831  53.2173 215.2827 0002329  50.2796 309.8402 15.08831829 35157,6917.905,95.438,541.382,538.159,0.0
50831.0,STARLINK-3299,PAYLOAD,2022-08-24 21:57:01,15.08834006,0.0002340999999999,53.2174,212.6059,50.2784,309.8414,-3.913e-05,-9.11e-06,0.0,0 STARLINK-3299,1 50831U 22001AE  22236.91460338 -.00000911  00000-0 -39130-4 0  9994,2 50831  53.2174 212.6059 0002341  50.2784 309.8414 15.08834006 35240,6917.899,95.438,541.383,538.144,0.0
50831.0,STARLINK-3299,PAYLOAD,2022-08-25 10:40:06,15.08837267,0.0002396,53.2176,210.2275,53.7385,306.3828,-3.2355e-05,-8.03e-06,0.0,0 STARLINK-3299,1 50831U 22001AE  22237.44452221 -.00000803  00000-0 -32355-4 0  9997,2 50831  53.2176 210.2275 0002396  53.7385 306.3828 15.08837267 36593,6917.889,95.438,541.411,538.096,0.0
50831.0,STARLINK-3299,PAYLOAD,2022-08-25 15:26:16,15.0883821,0.000236,53.2177,209.3355,51.8685,308.2519,-2.4696e-05,-6.81e-06,0.0,0 STARLINK-3299,1 50831U 22001AE  22237.64324149 -.00000681  00000-0 -24696-4 0  9999,2 50831  53.2177 209.3355 0002360  51.8685 308.2519 15.08838210 35355,6917.886,95.438,541.383,538.118,0.0
50831.0,STARLINK-3299,PAYLOAD,2022-08-26 07:20:07,15.08833962,0.0002423999999999,53.2176,206.3622,52.8112,307.3101,8.933e-05,1.133e-05,0.0,0 STARLINK-3299,1 50831U 22001AE  22238.30564144  .00001133  00000-0  89330-4 0  9991,2 50831  53.2176 206.3622 0002424  52.8112 307.3101 15.08833962 35452,6917.899,95.438,541.441,538.087,0.0
50831.0,STARLINK-3299,PAYLOAD,2022-08-26 15:17:03,15.0883522,0.0002459,53.2177,204.8756,53.1458,306.9759,8.2605e-05,1.026e-05,0.0,0 STARLINK-3299,1 50831U 22001AE  22238.63684216  .00001026  00000-0  82605-4 0  9999,2 50831  53.2177 204.8756 0002459  53.1458 306.9759 15.08835220 36778,6917.895,95.438,541.461,538.059,0.0
50831.0,STARLINK-3299,PAYLOAD,2022-08-27 07:10:54,15.08842977,0.0002499,53.2177,201.9018,54.6747,305.4478,0.00010485,1.381e-05,0.0,0 STARLINK-3299,1 50831U 22001AE  22239.29923748  .00001381  00000-0  10485-3 0  9998,2 50831  53.2177 201.9018 0002499  54.6747 305.4478 15.08842977 35608,6917.871,95.437,541.465,538.008,0.0
50831.0,STARLINK-3299,PAYLOAD,2022-08-27 21:29:21,15.08848449,0.0002508,53.2177,199.2256,55.776,304.347,0.00011476,1.539e-05,0.0,0 STARLINK-3299,1 50831U 22001AE  22239.89539215  .00001539  00000-0  11476-3 0  9992,2 50831  53.2177 199.2256 0002508  55.7760 304.3470 15.08848449 35698,6917.855,95.437,541.455,537.985,0.0
50831.0,STARLINK-3299,PAYLOAD,2022-08-28 07:01:41,15.08842428,0.0002568,53.2181,197.4422,55.308,304.8154,2.6383e-05,1.31e-06,0.0,0 STARLINK-3299,1 50831U 22001AE  22240.29283751  .00000131  00000-0  26383-4 0  9990,2 50831  53.2181 197.4422 0002568  55.3080 304.8154 15.08842428 35757,6917.873000000001,95.437,541.514,537.961,0.0
50831.0,STARLINK-3299,PAYLOAD,2022-08-29 05:17:04,15.08845332,0.0002556,53.2178,193.2788,56.592,303.5316,4.8451e-06,-2.11e-06,0.0,0 STARLINK-3299,1 50831U 22001AE  22241.22019374 -.00000211  00000-0  48451-5 0  9993,2 50831  53.2178 193.2788 0002556  56.5920 303.5316 15.08845332 37165,6917.864000000001,95.437,541.497,537.961,0.0
50831.0,STARLINK-3299,PAYLOAD,2022-08-29 06:52:28,15.08842113,0.0002638,53.2173,192.979,55.5783,304.5458,-3.9854e-05,-9.23e-06,0.0,0 STARLINK-3299,1 50831U 22001AE  22241.28643537 -.00000923  00000-0 -39854-4 0  9990,2 50831  53.2173 192.9790 0002638  55.5783 304.5458 15.08842113 35908,6917.874,95.437,541.564,537.914,0.0
50831.0,STARLINK-3299,PAYLOAD,2022-08-29 21:10:56,15.08842523,0.0002799,53.2178,190.3064,54.526,305.5993,-1.8006e-05,-5.75e-06,0.0,0 STARLINK-3299,1 50831U 22001AE  22241.88259913 -.00000575  00000-0 -18006-4 0  9996,2 50831  53.2178 190.3064 0002799  54.5260 305.5993 15.08842523 35995,6917.873000000001,95.437,541.674,537.8009999999998,0.0
50831.0,STARLINK-3299,PAYLOAD,2022-08-30 06:43:15,15.08843327,0.0002583999999999,53.218,188.5215,55.5102,304.6134,-3.1252e-05,-7.86e-06,0.0,0 STARLINK-3299,1 50831U 22001AE  22242.28003637 -.00000786  00000-0 -31252-4 0  9993,2 50831  53.2180 188.5215 0002584  55.5102 304.6134 15.08843327 36051,6917.87,95.437,541.523,537.948,0.0
50831.0,STARLINK-3299,PAYLOAD,2022-08-30 13:04:47,15.08840266,0.0002631,53.218,187.332,57.69300000000001,302.4317,7.1233e-05,8.45e-06,0.0,0 STARLINK-3299,1 50831U 22001AE  22242.54499567  .00000845  00000-0  71233-4 0  9990,2 50831  53.2180 187.3320 0002631  57.6930 302.4317 15.08840266 36092,6917.88,95.438,541.565,537.924,0.0
50831.0,STARLINK-3299,PAYLOAD,2022-08-31 04:58:39,15.08829745,0.0002484,53.2179,184.3585,65.0114,295.1136,4.4609e-05,4.21e-06,0.0,0 STARLINK-3299,1 50831U 22001AE  22243.20740283  .00000421  00000-0  44609-4 0  9995,2 50831  53.2179 184.3585 0002484  65.0114 295.1136 15.08829745 36190,6917.9119999999975,95.438,541.495,538.058,0.0
50831.0,STARLINK-3299,PAYLOAD,2022-08-31 19:17:08,15.0882698,0.0002484999999999,53.218,181.6823,58.5789,301.5446,-1.9684e-05,-6.02e-06,0.0,0 STARLINK-3299,1 50831U 22001AE  22243.80357119 -.00000602  00000-0 -19684-4 0  9991,2 50831  53.2180 181.6823 0002485  58.5789 301.5446 15.08826980 36287,6917.92,95.438,541.504,538.066,0.0
50831.0,STARLINK-3299,PAYLOAD,2022-09-01 04:49:28,15.08821561,0.000251,53.2181,179.8978,57.7281,302.3954,-7.017199999999999e-05,-1.405e-05,0.0,0 STARLINK-3299,1 50831U 22001AE  22244.20101985 -.00001405  00000-0 -70172-4 0  9995,2 50831  53.2181 179.8978 0002510  57.7281 302.3954 15.08821561 37616,6917.937,95.439,541.538,538.065,0.0
50831.0,STARLINK-3299,PAYLOAD,2022-09-02 04:40:15,15.08827914,0.0002603,53.2183,175.4369,56.7137,303.4104,6.129699999999999e-05,6.87e-06,0.0,0 STARLINK-3299,1 50831U 22001AE  22245.19462077  .00000687  00000-0  61297-4 0  9993,2 50831  53.2183 175.4369 0002603  56.7137 303.4104 15.08827914 37769,6917.917,95.438,541.5830000000002,537.982,0.0
50831.0,STARLINK-3299,PAYLOAD,2022-09-02 12:37:10,15.08831903,0.0002426,53.2182,173.9508,60.4949,299.6285,8.877e-05,1.124e-05,0.0,0 STARLINK-3299,1 50831U 22001AE  22245.52581971  .00001124  00000-0  88770-4 0  9997,2 50831  53.2182 173.9508 0002426  60.4949 299.6285 15.08831903 36546,6917.905,95.438,541.448,538.092,0.0
50831.0,STARLINK-3299,PAYLOAD,2022-09-02 18:58:43,15.08827536,0.0002403,53.2182,172.7613,60.5059,299.6173,0.00014688,2.049e-05,0.0,0 STARLINK-3299,1 50831U 22001AE  22245.79078153  .00002049  00000-0  14688-3 0  9992,2 50831  53.2182 172.7613 0002403  60.5059 299.6173 15.08827536 36585,6917.918000000002,95.438,541.446,538.121,0.0
50831.0,STARLINK-3299,PAYLOAD,2022-09-03 04:31:02,15.08837977,0.0002456,53.2183,170.9775,61.275,298.8488,0.00023561,3.463e-05,0.0,0 STARLINK-3299,1 50831U 22001AE  22246.18821773  .00003463  00000-0  23561-3 0  9991,2 50831  53.2183 170.9775 0002456  61.2750 298.8488 15.08837977 37917,6917.887,95.438,541.451,538.053,0.0
50831.0,STARLINK-3299,PAYLOAD,2022-09-03 12:27:57,15.08844407,0.0002463999999999,53.2183,169.4911,61.6989,298.4252,0.00025688,3.803e-05,0.0,0 STARLINK-3299,1 50831U 22001AE  22246.51941424  .00003803  00000-0  25688-3 0  9994,2 50831  53.2183 169.4911 0002464  61.6989 298.4252 15.08844407 36694,6917.8669999999975,95.437,541.436,538.0269999999998,0.0
50831.0,STARLINK-3299,PAYLOAD,2022-09-04 04:21:48,15.08855023,0.0002806,53.2188,166.5199,60.8288,299.2984,0.00023718,3.4899999999999995e-05,0.0,0 STARLINK-3299,1 50831U 22001AE  22247.18180614  .00003490  00000-0  23718-3 0  9998,2 50831  53.2188 166.5199 0002806  60.8288 299.2984 15.08855023 36796,6917.834,95.437,541.641,537.758,0.0
50831.0,STARLINK-3299,PAYLOAD,2022-09-04 18:40:16,15.08849636,0.0002728,53.2179,163.8417,64.9873,295.1403,7.6341e-05,9.27e-06,0.0,0 STARLINK-3299,1 50831U 22001AE  22247.77797092  .00000927  00000-0  76341-4 0  9990,2 50831  53.2179 163.8417 0002728  64.9873 295.1403 15.08849636 36881,6917.851,95.437,541.6030000000002,537.8290000000002,0.0
50831.0,STARLINK-3299,PAYLOAD,2022-09-05 02:37:12,15.08850535,0.0002552,53.2186,162.3557,68.5668,291.5597,2.534e-05,1.15e-06,0.0,0 STARLINK-3299,1 50831U 22001AE  22248.10916745  .00000115  00000-0  25340-4 0  9998,2 50831  53.2186 162.3557 0002552  68.5668 291.5597 15.08850535 38207,6917.848000000001,95.437,541.479,537.948,0.0
50831.0,STARLINK-3299,PAYLOAD,2022-09-05 05:47:58,15.08846132,0.000268,53.2176,161.7606,56.9216,303.2033,-1.4479e-05,-5.19e-06,0.0,0 STARLINK-3299,1 50831U 22001AE  22248.24164978 -.00000519  00000-0 -14479-4 0  9997,2 50831  53.2176 161.7606 0002680  56.9216 303.2033 15.08846132 36950,6917.861999999999,95.437,541.581,537.873,0.0
50831.0,STARLINK-3299,PAYLOAD,2022-09-06 04:03:22,15.08841199,0.0002393,53.2173,157.5995,63.2544,296.8692,-0.00012923,-2.345e-05,0.0,0 STARLINK-3299,1 50831U 22001AE  22249.16900839 -.00002345  00000-0 -12923-3 0  9993,2 50831  53.2173 157.5995 0002393  63.2544 296.8692 15.08841199 38360,6917.877,95.437,541.3969999999998,538.086,0.0
